43257,IRIDIUM 150,2018,100.4,860.0,+,86.4,Active,1,LEO,USA,USA,Commercial/Government,Communications,Falcon,1 43257U 18030J   24121.43846160  .00000367  00000+0  12386-3 0  9993,2 43257  86.3956 255.4649 0001852  89.8033 270.3375 14.34220061318688,14.34220061,0.0001852,LEO
43258,IRIDIUM 143,2018,100.4,860.0,+,86.4,Active,1,LEO,USA,USA,Commercial/Government,Communications,Falcon,1 43258U 18030K   24121.41943803  .00000393  00000+0  13333-3 0  9996,2 43258  86.3959 255.5344 0001632  92.6903 267.4479 14.34215324318610,14.34215324,0.0001632,LEO
43478,IRIDIUM 161,2018,99.77,860.0,+,86.45,Active,1,LEO,USA,USA,Commercial/Government,Communications,Falcon,1 43478U 18047C   24121.55430697  .00000716  00000+0  20676-3 0  9992,2 43478  86.4510  53.4493 0002332  87.8557 272.2911 14.43282430312977,14.4328243,0.0002332,LEO
43479,IRIDIUM 152,2018,100.4,860.0,+,86.4,Active,1,LEO,USA,USA,Commercial/Government,Communications,Falcon,1 43479U 18047D   24121.53169404  .00000031  00000+0  39222-5 0  9995,2 43479  86.3983  53.3181 0002240  84.8656 275.2795 14.34215405311025,14.34215405,0.000224,LEO
43480,IRIDIUM 147,2018,100.4,860.0,+,86.4,Active,1,LEO,USA,USA,Commercial/Government,Communications,Falcon,1 43480U 18047E   24121.53802462  .00000305  00000+0  10172-3 0  9990,2 43480  86.3987  53.3070 0002411  85.7304 274.4167 14.34217310311029,14.3421731,0.0002411,LEO
43481,IRIDIUM 110,2018,100.4,860.0,+,86.4,Active,1,LEO,USA,USA,Commercial/Government,Communications,Falcon,1 43481U 18047F   24121.54437625  .00000547  00000+0  18823-3 0  9996,2 43481  86.3988  53.3760 0002705  81.0892 279.0610 14.34218964311013,14.34218964,0.0002705,LEO
43482,IRIDIUM 162,2018,99.77,860.0,+,86.45,Active,1,LEO,USA,USA,Commercial/Government,Communications,Falcon,1 43482U 18047G   24121.54799625  .00000745  00000+0  21533-3 0  9990,2 43482  86.4508  53.3525 0002430  87.2021 272.9458 14.43285568312960,14.43285568,0.000243,LEO
43569,IRIDIUM 160,2018,100.4,860.0,+,86.4,Active,1,LEO,USA,USA,Commercial/Government,Communications,Falcon,1 43569U 18061A   24121.42044859  .00000432  00000+0  14720-3 0  9994,2 43569  86.4015  21.8092 0002480  91.0115 269.1365 14.34212720301895,14.3421272,0.000248,LEO
